#aV2012  6 23  0  0  0.00000000     288 DD+AD WGS84 FIT  NGA
## 1693 518400.00000000   300.00000000 56101 0.0000000000000
+   31     1  2  3  4  5  6  7  8  9 10 11 12 13 14 15 16 17
+         18 19 20 21 22 23 25 26 27 28 29 30 31 32  0  0  0
+          0  0  0  0  0  0  0  0  0  0  0  0  0  0  0  0  0
+          0  0  0  0  0  0  0  0  0  0  0  0  0  0  0  0  0
+          0  0  0  0  0  0  0  0  0  0  0  0  0  0  0  0  0
++         2  2  2  2  2  2  2  2  2  2  2  2  2  2  2  2  2
++         2  2  2  2  2  2  2  2  2  2  2  2  2  2  2  0  0
++         0  0  0  0  0  0  0  0  0  0  0  0  0  0  0  0  0
++         0  0  0  0  0  0  0  0  0  0  0  0  0  0  0  0  0
++         0  0  0  0  0  0  0  0  0  0  0  0  0  0  0  0  0
%c cc cc ccc ccc cccc cccc cccc cccc ccccc ccccc ccccc ccccc
%c cc cc ccc ccc cccc cccc cccc cccc ccccc ccccc ccccc ccccc
%f  0.0000000  0.000000000  0.00000000000  0.000000000000000
%f  0.0000000  0.000000000  0.00000000000  0.000000000000000
%i    0    0    0    0      0      0      0      0         0
%i    0    0    0    0      0      0      0      0         0
/*      NGA, ST. LOUIS,MO.                                  
/*   EPHEMERIS COMPUTED FROM  1 DAYS OF DATA
/*   EPOCHA SMOOTHER  
/* CCCCCCCCCCCCCCCCCCCCCCCCCCCCCCCCCCCCCCCCCCCCCCCCCCCCCCCCC
*  2012  6 23  0 15  0.00000000                                                 
P  1  14637.535632  -4340.813859  21725.256420    262.535541                    
V  1   5901.311231  26970.446026   1450.449032      0.016453                    
P  2 -13554.426600 -19622.120410 -12069.239261    394.527259                    
V  2   -904.346512 -15588.491723  25561.371797      0.012129                    
P  3  23063.434417  10732.076285  -8583.297104     65.891275                    
V  3 -10618.425970   1201.867607 -28352.368935      0.050086                    
P  4  -6537.122585 -25531.129261  -1546.454383    222.351254                    
V  4   3391.766475  -2444.991973  31346.450665      0.113829                    
P  5 -14657.699551  -7031.435880 -21042.486629   -327.924667                    
V  5  19416.370139 -18324.735797  -7283.022790     -0.036196                    
P  6  19979.268406  13709.450113 -11109.440687     15.451241                    
V  6 -14465.902003   -926.250477 -26560.706020     -0.040429                    
P  7   8659.705588 -17805.610735 -17550.178403     93.275796                    
V  7   5792.770588  21687.605653 -19378.717501      0.036858                    
P  8   1222.238146 -25484.776581  -6104.684600      1.536721                    
V  8   2890.880976   7676.064220 -31678.947488      0.001123                    
P  9 -14787.895147   -774.012998  21487.327399    166.904117                    
V  9  -5763.258387 -27985.508066  -4896.654933      0.025684                    
P 10   1632.766154 -19040.068368 -18533.140555    -42.351580                    
V 10  18811.775888 -13719.714068  16367.183045     -0.012595                    
P 11  18319.447833   1962.248063  18833.585177   -274.406903                    
V 11   9914.162452  22990.576018 -11479.287013     -0.038603                    
P 12 -22141.022337   8498.457880  11744.073307     76.008867                    
V 12  10102.422987 -11228.497316  27333.445816      0.020684                    
P 13  13827.404139  -9112.588360 -20933.351894    199.269555                    
V 13  23752.808524  10972.703442  10885.959538     -0.024533                    
P 14   4406.959941  16616.629506  20468.034437    205.698821                    
V 14 -23930.098071  -8821.084901  12278.374259      0.007854                    
P 15 -25666.719411  -2706.032262   6716.719968    -91.910175                    
V 15  -7281.568538  -5308.368871 -29718.717195     -0.002770                    
P 16  13926.503812   7182.263616 -21496.151293   -239.003602                    
V 16 -20790.226194  17506.567701  -7310.891575     -0.011434                    
P 17  -3106.730900 -16539.286222  20782.266429    119.020528                    
V 17  24572.148417   8271.991100  10115.000013     -0.029475                    
P 18 -15545.693727  20336.281354   6694.918451    201.820513                    
V 18  -8674.734558   2490.790533 -29693.289452      0.018073                    
P 19  25323.337310   6967.926706   5148.537793   -277.818069                    
V 19   5042.529052   4800.610200 -30603.256627     -0.036596                    
P 20  21696.589539 -12888.521562   8018.015293     64.110011                    
V 20  -4949.831239   9889.674671  28795.284694      0.002958                    
P 21  -6102.836230  21269.983944 -13759.351943   -231.954639                    
V 21  -7048.716462 -17566.261020 -23770.402659     -0.024105                    
P 22  -2978.164217  19945.684809  17407.278782    144.761582                    
V 22 -17983.372104  12709.629115 -17960.145336      0.003339                    
P 23  22877.221870  -2217.905720 -13596.303686    192.654358                    
V 23  15616.435302   7431.996699  24616.864931     -0.037916                    
P 25 -19190.760510  18293.478503   -858.429149     35.848159                    
V 25  -2531.620270  -1224.852816  31954.812972      0.006459                    
P 26 -22403.541399 -13704.085913  -5720.298410   -366.985814                    
V 26   6513.172254    984.549040 -30937.848337      0.105386                    
P 27 -16020.311757  -6821.125766  20810.820202    401.585754                    
V 27  -5561.670451 -24237.047625 -12110.942279      0.040305                    
P 28   6561.301741 -19833.754952  16823.537009    157.528067                    
V 28  16735.676338 -11690.764430 -21219.575022      0.039257                    
P 29 -17187.052100   7421.986730 -18757.508931    326.185625                    
V 29 -21906.062359  -9809.585489  16180.654355      0.038566                    
P 30   5936.342700  15437.137829 -21145.102303   -253.323948                    
V 30 -18089.219199  18720.232380   8738.368768     -0.225166                    
P 31   6749.346548  25373.241785  -2820.637603    254.825123                    
V 31  -1631.956049   4210.080219  32085.947700      0.028995                    
P 32  21776.226493  -3189.289632  14720.749586   -457.305719                    
V 32 -13329.805271  13157.060077  23363.927369     -0.040444                    
EOF
